[{"OBJECT_NAME":"STARLINK-5631","OBJECT_ID":"2023-013R","EPOCH":"2026-03-08T23:45:53.991936","MEAN_MOTION":15.02527015,"ECCENTRICITY":0.00014588,"INCLINATION":43.0022,"RA_OF_ASC_NODE":304.182,"ARG_OF_PERICENTER":265.7976,"MEAN_ANOMALY":94.27,"EPHEMERIS_TYPE":0,"CLASSIFICATION_TYPE":"U","NORAD_CAT_ID":55346,"ELEMENT_SET_NO":999,"REV_AT_EPOCH":17160,"BSTAR":-0.00010228219,"MEAN_MOTION_DOT":-1.585e-5,"MEAN_MOTION_DDOT":0},{"OBJECT_NAME":"ELECTRON KICK STAGE R\/B","OBJECT_ID":"2024-219F","EPOCH":"2026-03-09T23:20:11.125536","MEAN_MOTION":14.96109186,"ECCENTRICITY":0.00508226,"INCLINATION":97.9798,"RA_OF_ASC_NODE":244.6751,"ARG_OF_PERICENTER":283.2555,"MEAN_ANOMALY":76.3,"EPHEMERIS_TYPE":0,"CLASSIFICATION_TYPE":"U","NORAD_CAT_ID":62086,"ELEMENT_SET_NO":999,"REV_AT_EPOCH":7010,"BSTAR":0.00053960044,"MEAN_MOTION_DOT":6.166e-5,"MEAN_MOTION_DDOT":0}]
